IRIDIUM 155             
1 43573U 18061E   24065.44705146  .00000447  00000+0  15239-3 0  9993
2 43573  86.3953  45.1002 0002077  92.8652 267.2781 14.34223480293859
IRIDIUM 154             
1 43574U 18061F   24065.56758563  .00000459  00000+0  15698-3 0  9990
2 43574  86.3956  45.1424 0002171  81.9389 278.2053 14.34218445293929
IRIDIUM 163             
1 43575U 18061G   24065.68808177 -.00000113  00000+0 -47468-4 0  9991
2 43575  86.3953  45.0339 0002017  85.1752 274.9675 14.34216438293912
IRIDIUM 156             
1 43576U 18061H   24065.87201579  .00000469  00000+0  16038-3 0  9996
2 43576  86.3954  44.9628 0002392  91.0352 269.1117 14.34220014293924
IRIDIUM 164             
1 43577U 18061J   24065.43437973  .00000186  00000+0  59330-4 0  9997
2 43577  86.3956  45.1731 0002458  85.5479 274.5998 14.34217691293919
IRIDIUM 159             
1 43578U 18061K   24065.47243756  .00000102  00000+0  29302-4 0  9990
2 43578  86.3972  45.1094 0003222  66.3333 293.8200 14.34212069293886
IRIDIUM 180             
1 43922U 19002A   24065.82078186  .00000441  00000+0  15034-3 0  9993
2 43922  86.4022 341.8838 0002161  83.1567 276.9874 14.34217479269584
IRIDIUM 176             
1 43923U 19002B   24065.80681051  .00001670  00000+0  26062-3 0  9991
2 43923  86.6149 341.9178 0002638  86.2040 273.9479 14.72292303276637
IRIDIUM 168             
1 43924U 19002C   24065.81443098  .00000261  00000+0  86285-4 0  9999
2 43924  86.4021 341.9399 0002124  82.6117 277.5320 14.34218918269528
IRIDIUM 173             
1 43925U 19002D   24065.80174075  .00000386  00000+0  13070-3 0  9994
2 43925  86.4021 341.8685 0002114  83.6942 276.4495 14.34216748269511
IRIDIUM 169             
1 43926U 19002E   24065.34815780  .00000550  00000+0  17341-3 0  9997
2 43926  86.4271  13.6454 0002128 155.4047 204.7254 14.38611828270348
IRIDIUM 172             
1 43927U 19002F   24065.79540361  .00000329  00000+0  11041-3 0  9992
2 43927  86.4021 341.8766 0002258  83.8070 276.3383 14.34219389269515
IRIDIUM 175             
1 43928U 19002G   24065.80099129  .00001489  00000+0  23203-3 0  9997
2 43928  86.1532 320.9159 0002262  85.6931 274.4543 14.72276457276623
IRIDIUM 171             
1 43929U 19002H   24065.28799667  .00000242  00000+0  79479-4 0  9997
2 43929  86.4028 342.3023 0002289  84.6075 275.5382 14.34219049269438
IRIDIUM 170             
1 43930U 19002J   24065.81301370  .00001673  00000+0  26119-3 0  9999
2 43930  86.6148 341.9197 0002686  87.1400 273.0125 14.72288130276641
IRIDIUM 167             
1 43931U 19002K   24065.83980157  .00000157  00000+0  49091-4 0  9999
2 43931  86.4019 341.8730 0002283  84.0622 276.0834 14.34219000269510
IRIDIUM 181             
1 56726U 23068S   24065.82536136  .00000641  00000+0  18359-3 0  9995
2 56726  86.8650  30.5521 0002943  90.7094 269.4445 14.43604402 42226
IRIDIUM 177             
1 56727U 23068T   24065.86234511  .00002570  00000+0  33470-3 0  9996
2 56727  86.2024   4.4061 0002627  90.7596 269.3926 14.80225244 43094
IRIDIUM 174             
1 56728U 23068U   24065.85692237  .00002557  00000+0  33304-3 0  9990
2 56728  86.2031   4.5040 0002543  91.8560 268.2952 14.80224823 43090
IRIDIUM 178             
1 56729U 23068V   24065.85151443  .00002429  00000+0  31620-3 0  9997
2 56729  86.5821  17.0608 0002480  90.7896 269.3609 14.80226838 43099
IRIDIUM 179             
1 56730U 23068W   24065.84609599  .00002491  00000+0  32440-3 0  9998
2 56730  86.6827  19.8928 0002577  93.1629 266.9887 14.80226035 43091
